STARLINK-32880          
1 62955U 25029H   25286.04664594  .00036671  00000+0  12448-2 0  9999
2 62955  53.1581 198.1815 0000767  90.8743 269.2346 15.30183420 38725
STARLINK-32815          
1 62956U 25029J   25286.03767334  .00009570  00000+0  33507-3 0  9993
2 62956  53.1569 195.9988 0001320  59.0269 301.0861 15.30176370 38750
STARLINK-32879          
1 62957U 25029K   25285.74434096  .00048761  00000+0  16445-2 0  9993
2 62957  53.1596 199.8546 0001521  91.3620 268.7555 15.30263559 38662
STARLINK-32885          
1 62958U 25029L   25286.03873025  .00038350  00000+0  12996-2 0  9996
2 62958  53.1589 196.0043 0000722  64.5480 295.5596 15.30216418 38748
STARLINK-32896          
1 62959U 25029M   25286.14889523  .00049847  00000+0  16843-2 0  9997
2 62959  53.1591 198.1097 0001481  72.5108 287.6055 15.30190831 38723
STARLINK-32877          
1 62960U 25029N   25286.07724939  .00035993  00000+0  12222-2 0  9994
2 62960  53.1598 198.3748 0001358  62.8538 297.2601 15.30182247 38691
STARLINK-32889          
1 62961U 25029P   25286.08042191  .00043596  00000+0  14762-2 0  9998
2 62961  53.1598 198.3968 0002098  32.4453 327.6676 15.30181988 38711
STARLINK-32858          
1 62962U 25029Q   25286.02131464  .00006812  00000+0  24204-3 0  9998
2 62962  53.1576 198.0289 0003182  89.5072 270.6293 15.30185169 38690
STARLINK-32882          
1 62963U 25029R   25286.04084223  .00053086  00000+0  17935-2 0  9998
2 62963  53.1597 196.0163 0000949  57.5345 302.5747 15.30167987 38742
STARLINK-32887          
1 62964U 25029S   25286.03556032  .00051868  00000+0  17537-2 0  9994
2 62964  53.1577 195.9845 0002070 103.2073 256.9159 15.30152042 38745
STARLINK-32836          
1 62965U 25029T   25286.03132869  .00052238  00000+0  17599-2 0  9993
2 62965  53.1547 195.9553 0002806 103.1961 256.9353 15.30263675 38742
STARLINK-32888          
1 62966U 25029U   25286.13939658  .00043534  00000+0  14735-2 0  9994
2 62966  53.1581 198.0651 0001324 105.8924 254.2223 15.30197874 38728
STARLINK-32897          
1 62967U 25029V   25286.04136719  .00058276  00000+0  19621-2 0  9990
2 62967  53.1585 198.1459 0000943  90.0838 270.0271 15.30236420 38714
STARLINK-32863          
1 62968U 25029W   25286.06458747  .00041911  00000+0  14198-2 0  9993
2 62968  53.1575 198.2964 0001389  74.0402 286.0752 15.30186906 37858
STARLINK-32894          
1 62969U 25029X   25286.03503383  .00068240  00000+0  22918-2 0  9991
2 62969  53.1583 198.1070 0000659  86.1403 273.9673 15.30245993 38714
STARLINK-32826          
1 62970U 25029Y   25286.02870439  .00024191  00000+0  82653-3 0  9991
2 62970  53.1601 198.0685 0000355  26.9636 333.1383 15.30187504 38711
