[{"OBJECT_NAME":"STARLINK-32880","OBJECT_ID":"2025-029H","EPOCH":"2025-10-13T01:07:10.209216","MEAN_MOTION":15.3018342,"ECCENTRICITY":7.674e-5,"INCLINATION":53.1581,"RA_OF_ASC_NODE":198.1815,"ARG_OF_PERICENTER":90.8743,"MEAN_ANOMALY":269.2346,"EPHEMERIS_TYPE":0,"CLASSIFICATION_TYPE":"U","NORAD_CAT_ID":62955,"ELEMENT_SET_NO":999,"REV_AT_EPOCH":3872,"BSTAR":0.0012447898,"MEAN_MOTION_DOT":0.00036671,"MEAN_MOTION_DDOT":0},{"OBJECT_NAME":"STARLINK-32815","OBJECT_ID":"2025-029J","EPOCH":"2025-10-13T00:54:14.976576","MEAN_MOTION":15.3017637,"ECCENTRICITY":0.00013202,"INCLINATION":53.1569,"RA_OF_ASC_NODE":195.9988,"ARG_OF_PERICENTER":59.0269,"MEAN_ANOMALY":301.0861,"EPHEMERIS_TYPE":0,"CLASSIFICATION_TYPE":"U","NORAD_CAT_ID":62956,"ELEMENT_SET_NO":999,"REV_AT_EPOCH":3875,"BSTAR":0.00033507488,"MEAN_MOTION_DOT":9.57e-5,"MEAN_MOTION_DDOT":0},{"OBJECT_NAME":"STARLINK-32879","OBJECT_ID":"2025-029K","EPOCH":"2025-10-12T17:51:51.058944","MEAN_MOTION":15.30263559,"ECCENTRICITY":0.0001521,"INCLINATION":53.1596,"RA_OF_ASC_NODE":199.8546,"ARG_OF_PERICENTER":91.362,"MEAN_ANOMALY":268.7555,"EPHEMERIS_TYPE":0,"CLASSIFICATION_TYPE":"U","NORAD_CAT_ID":62957,"ELEMENT_SET_NO":999,"REV_AT_EPOCH":3866,"BSTAR":0.0016444571,"MEAN_MOTION_DOT":0.00048761,"MEAN_MOTION_DDOT":0},{"OBJECT_NAME":"STARLINK-32885","OBJECT_ID":"2025-029L","EPOCH":"2025-10-13T00:55:46.293600","MEAN_MOTION":15.30216418,"ECCENTRICITY":7.229e-5,"INCLINATION":53.1589,"RA_OF_ASC_NODE":196.0043,"ARG_OF_PERICENTER":64.548,"MEAN_ANOMALY":295.5596,"EPHEMERIS_TYPE":0,"CLASSIFICATION_TYPE":"U","NORAD_CAT_ID":62958,"ELEMENT_SET_NO":999,"REV_AT_EPOCH":3874,"BSTAR":0.001299621,"MEAN_MOTION_DOT":0.0003835,"MEAN_MOTION_DDOT":0},{"OBJECT_NAME":"STARLINK-32896","OBJECT_ID":"2025-029M","EPOCH":"2025-10-13T03:34:24.547872","MEAN_MOTION":15.30190831,"ECCENTRICITY":0.00014817,"INCLINATION":53.1591,"RA_OF_ASC_NODE":198.1097,"ARG_OF_PERICENTER":72.5108,"MEAN_ANOMALY":287.6055,"EPHEMERIS_TYPE":0,"CLASSIFICATION_TYPE":"U","NORAD_CAT_ID":62959,"ELEMENT_SET_NO":999,"REV_AT_EPOCH":3872,"BSTAR":0.0016843203,"MEAN_MOTION_DOT":0.00049847,"MEAN_MOTION_DDOT":0},{"OBJECT_NAME":"STARLINK-32877","OBJECT_ID":"2025-029N","EPOCH":"2025-10-13T01:51:14.347296","MEAN_MOTION":15.30182247,"ECCENTRICITY":0.00013585,"INCLINATION":53.1598,"RA_OF_ASC_NODE":198.3748,"ARG_OF_PERICENTER":62.8538,"MEAN_ANOMALY":297.2601,"EPHEMERIS_TYPE":0,"CLASSIFICATION_TYPE":"U","NORAD_CAT_ID":62960,"ELEMENT_SET_NO":999,"REV_AT_EPOCH":3869,"BSTAR":0.0012221514,"MEAN_MOTION_DOT":0.00035993,"MEAN_MOTION_DDOT":0},{"OBJECT_NAME":"STARLINK-32889","OBJECT_ID":"2025-029P","EPOCH":"2025-10-13T01:55:48.453024","MEAN_MOTION":15.30181988,"ECCENTRICITY":0.00020984,"INCLINATION":53.1598,"RA_OF_ASC_NODE":198.3968,"ARG_OF_PERICENTER":32.4453,"MEAN_ANOMALY":327.6676,"EPHEMERIS_TYPE":0,"CLASSIFICATION_TYPE":"U","NORAD_CAT_ID":62961,"ELEMENT_SET_NO":999,"REV_AT_EPOCH":3871,"BSTAR":0.0014762415,"MEAN_MOTION_DOT":0.00043596,"MEAN_MOTION_DDOT":0},{"OBJECT_NAME":"STARLINK-32858","OBJECT_ID":"2025-029Q","EPOCH":"2025-10-13T00:30:41.584896","MEAN_MOTION":15.30185169,"ECCENTRICITY":0.00031826,"INCLINATION":53.1576,"RA_OF_ASC_NODE":198.0289,"ARG_OF_PERICENTER":89.5072,"MEAN_ANOMALY":270.6293,"EPHEMERIS_TYPE":0,"CLASSIFICATION_TYPE":"U","NORAD_CAT_ID":62962,"ELEMENT_SET_NO":999,"REV_AT_EPOCH":3869,"BSTAR":0.00024203755,"MEAN_MOTION_DOT":6.812e-5,"MEAN_MOTION_DDOT":0},{"OBJECT_NAME":"STARLINK-32882","OBJECT_ID":"2025-029R","EPOCH":"2025-10-13T00:58:48.768672","MEAN_MOTION":15.30167987,"ECCENTRICITY":9.492e-5,"INCLINATION":53.1597,"RA_OF_ASC_NODE":196.0163,"ARG_OF_PERICENTER":57.5345,"MEAN_ANOMALY":302.5747,"EPHEMERIS_TYPE":0,"CLASSIFICATION_TYPE":"U","NORAD_CAT_ID":62963,"ELEMENT_SET_NO":999,"REV_AT_EPOCH":3874,"BSTAR":0.0017935013,"MEAN_MOTION_DOT":0.00053086,"MEAN_MOTION_DDOT":0},{"OBJECT_NAME":"STARLINK-32887","OBJECT_ID":"2025-029S","EPOCH":"2025-10-13T00:51:12.411648","MEAN_MOTION":15.30152042,"ECCENTRICITY":0.00020703,"INCLINATION":53.1577,"RA_OF_ASC_NODE":195.9845,"ARG_OF_PERICENTER":103.2073,"MEAN_ANOMALY":256.9159,"EPHEMERIS_TYPE":0,"CLASSIFICATION_TYPE":"U","NORAD_CAT_ID":62964,"ELEMENT_SET_NO":999,"REV_AT_EPOCH":3874,"BSTAR":0.001753725,"MEAN_MOTION_DOT":0.00051868,"MEAN_MOTION_DDOT":0},{"OBJECT_NAME":"STARLINK-32836","OBJECT_ID":"2025-029T","EPOCH":"2025-10-13T00:45:06.798816","MEAN_MOTION":15.30263675,"ECCENTRICITY":0.00028062,"INCLINATION":53.1547,"RA_OF_ASC_NODE":195.9553,"ARG_OF_PERICENTER":103.1961,"MEAN_ANOMALY":256.9353,"EPHEMERIS_TYPE":0,"CLASSIFICATION_TYPE":"U","NORAD_CAT_ID":62965,"ELEMENT_SET_NO":999,"REV_AT_EPOCH":3874,"BSTAR":0.0017599251,"MEAN_MOTION_DOT":0.00052238,"MEAN_MOTION_DDOT":0},{"OBJECT_NAME":"STARLINK-32888","OBJECT_ID":"2025-029U","EPOCH":"2025-10-13T03:20:43.864512","MEAN_MOTION":15.30197874,"ECCENTRICITY":0.0001324,"INCLINATION":53.1581,"RA_OF_ASC_NODE":198.0651,"ARG_OF_PERICENTER":105.8924,"MEAN_ANOMALY":254.2223,"EPHEMERIS_TYPE":0,"CLASSIFICATION_TYPE":"U","NORAD_CAT_ID":62966,"ELEMENT_SET_NO":999,"REV_AT_EPOCH":3872,"BSTAR":0.0014734802,"MEAN_MOTION_DOT":0.00043534,"MEAN_MOTION_DDOT":0},{"OBJECT_NAME":"STARLINK-32897","OBJECT_ID":"2025-029V","EPOCH":"2025-10-13T00:59:34.125216","MEAN_MOTION":15.3023642,"ECCENTRICITY":9.437e-5,"INCLINATION":53.1585,"RA_OF_ASC_NODE":198.1459,"ARG_OF_PERICENTER":90.0838,"MEAN_ANOMALY":270.0271,"EPHEMERIS_TYPE":0,"CLASSIFICATION_TYPE":"U","NORAD_CAT_ID":62967,"ELEMENT_SET_NO":999,"REV_AT_EPOCH":3871,"BSTAR":0.0019621447,"MEAN_MOTION_DOT":0.00058276,"MEAN_MOTION_DDOT":0},{"OBJECT_NAME":"STARLINK-32863","OBJECT_ID":"2025-029W","EPOCH":"2025-10-13T01:33:00.357408","MEAN_MOTION":15.30186906,"ECCENTRICITY":0.00013896,"INCLINATION":53.1575,"RA_OF_ASC_NODE":198.2964,"ARG_OF_PERICENTER":74.0402,"MEAN_ANOMALY":286.0752,"EPHEMERIS_TYPE":0,"CLASSIFICATION_TYPE":"U","NORAD_CAT_ID":62968,"ELEMENT_SET_NO":999,"REV_AT_EPOCH":3785,"BSTAR":0.0014197713,"MEAN_MOTION_DOT":0.00041911,"MEAN_MOTION_DDOT":0},{"OBJECT_NAME":"STARLINK-32894","OBJECT_ID":"2025-029X","EPOCH":"2025-10-13T00:50:26.922912","MEAN_MOTION":15.30245993,"ECCENTRICITY":6.595e-5,"INCLINATION":53.1583,"RA_OF_ASC_NODE":198.107,"ARG_OF_PERICENTER":86.1403,"MEAN_ANOMALY":273.9673,"EPHEMERIS_TYPE":0,"CLASSIFICATION_TYPE":"U","NORAD_CAT_ID":62969,"ELEMENT_SET_NO":999,"REV_AT_EPOCH":3871,"BSTAR":0.0022918193,"MEAN_MOTION_DOT":0.0006824,"MEAN_MOTION_DDOT":0},{"OBJECT_NAME":"STARLINK-32826","OBJECT_ID":"2025-029Y","EPOCH":"2025-10-13T00:41:20.059296","MEAN_MOTION":15.30187504,"ECCENTRICITY":3.551e-5,"INCLINATION":53.1601,"RA_OF_ASC_NODE":198.0685,"ARG_OF_PERICENTER":26.9636,"MEAN_ANOMALY":333.1383,"EPHEMERIS_TYPE":0,"CLASSIFICATION_TYPE":"U","NORAD_CAT_ID":62970,"ELEMENT_SET_NO":999,"REV_AT_EPOCH":3871,"BSTAR":0.00082652508,"MEAN_MOTION_DOT":0.00024191,"MEAN_MOTION_DDOT":0}]
